start=new Date('2023-06-02T00:00:00.000Z').valueOf();
sats=[{"CENTER_NAME":"EARTH","RA_OF_ASC_NODE":"57.1052","MEAN_MOTION":"15.06406017","EPOCH":"2023-06-01T03:29:44.137536","OBJECT_ID":"2021-040AZ","SEMIMAJOR_AXIS":"6925.330","REV_AT_EPOCH":"11387","MEAN_MOTION_DOT":"0.00011966","GP_ID":"232960930","NORAD_CAT_ID":"48475","ECCENTRICITY":"0.00011850","TLE_LINE2":"2 48475  53.0551  57.1052 0001185  94.2413 265.8712 15.06406017113878","DECAY_DATE":null,"RCS_SIZE":"LARGE","BSTAR":"0.00082071000000","MEAN_ANOMALY":"265.8712","PERIAPSIS":"546.374","TLE_LINE1":"1 48475U 21040AZ  23152.14564974  .00011966  00000-0  82071-3 0  9992","EPHEMERIS_TYPE":"0","MEAN_ELEMENT_THEORY":"SGP4","OBJECT_TYPE":"PAYLOAD","REF_FRAME":"TEME","SITE":"AFETR","APOAPSIS":"548.016","INCLINATION":"53.0551","LAUNCH_DATE":"2021-05-09","OBJECT_NAME":"STARLINK-2619","COUNTRY_CODE":"US","CLASSIFICATION_TYPE":"U","MEAN_MOTION_DDOT":"0.0000000000000","PERIOD":"95.592","ARG_OF_PERICENTER":"94.2413","ELEMENT_SET_NO":"999","FILE":"3922365","TIME_SYSTEM":"UTC"},{"GP_ID":"232996953","REV_AT_EPOCH":"11398","SEMIMAJOR_AXIS":"6925.208","MEAN_MOTION_DOT":"0.00019420","OBJECT_ID":"2021-040BA","CENTER_NAME":"EARTH","EPOCH":"2023-06-01T21:32:29.784480","MEAN_MOTION":"15.06445738","RA_OF_ASC_NODE":"53.7261","MEAN_ANOMALY":"262.4153","PERIAPSIS":"546.278","BSTAR":"0.00131740000000","DECAY_DATE":null,"RCS_SIZE":"LARGE","ECCENTRICITY":"0.00011490","NORAD_CAT_ID":"48476","TLE_LINE2":"2 48476  53.0556  53.7261 0001149  97.6966 262.4153 15.06445738113985","LAUNCH_DATE":"2021-05-09","INCLINATION":"53.0556","SITE":"AFETR","APOAPSIS":"547.869","OBJECT_TYPE":"PAYLOAD","MEAN_ELEMENT_THEORY":"SGP4","EPHEMERIS_TYPE":"0","TLE_LINE1":"1 48476U 21040BA  23152.89756695  .00019420  00000-0  13174-2 0  9998","REF_FRAME":"TEME","ARG_OF_PERICENTER":"97.6966","PERIOD":"95.589","TIME_SYSTEM":"UTC","ELEMENT_SET_NO":"999","FILE":"3922718","MEAN_MOTION_DDOT":"0.0000000000000","CLASSIFICATION_TYPE":"U","COUNTRY_CODE":"US","OBJECT_NAME":"STARLINK-2723"},{"COUNTRY_CODE":"US","CLASSIFICATION_TYPE":"U","OBJECT_NAME":"STARLINK-2728","MEAN_MOTION_DDOT":"0.0000000000000","FILE":"3922365","ELEMENT_SET_NO":"999","TIME_SYSTEM":"UTC","PERIOD":"95.592","ARG_OF_PERICENTER":"86.5478","REF_FRAME":"TEME","TLE_LINE1":"1 48478U 21040BC  23152.15302847  .00012407  00000-0  85012-3 0  9994","EPHEMERIS_TYPE":"0","OBJECT_TYPE":"PAYLOAD","MEAN_ELEMENT_THEORY":"SGP4","APOAPSIS":"548.026","SITE":"AFETR","INCLINATION":"53.0556","LAUNCH_DATE":"2021-05-09","TLE_LINE2":"2 48478  53.0556  57.0735 0001212  86.5478 273.5650 15.06408772113876","NORAD_CAT_ID":"48478","ECCENTRICITY":"0.00012120","RCS_SIZE":"LARGE","DECAY_DATE":null,"BSTAR":"0.00085012000000","PERIAPSIS":"546.347","MEAN_ANOMALY":"273.5650","RA_OF_ASC_NODE":"57.0735","MEAN_MOTION":"15.06408772","EPOCH":"2023-06-01T03:40:21.659808","CENTER_NAME":"EARTH","OBJECT_ID":"2021-040BC","MEAN_MOTION_DOT":"0.00012407","SEMIMAJOR_AXIS":"6925.322","REV_AT_EPOCH":"11387","GP_ID":"232961426"},{"PERIAPSIS":"546.338","MEAN_ANOMALY":"270.7833","BSTAR":"0.00103810000000","DECAY_DATE":null,"RCS_SIZE":"LARGE","TLE_LINE2":"2 48479  53.0555  57.0880 0001194  89.3293 270.7833 15.06416004113871","ECCENTRICITY":"0.00011940","NORAD_CAT_ID":"48479","GP_ID":"232960680","MEAN_MOTION_DOT":"0.00015221","REV_AT_EPOCH":"11387","SEMIMAJOR_AXIS":"6925.300","OBJECT_ID":"2021-040BD","MEAN_MOTION":"15.06416004","EPOCH":"2023-06-01T03:35:03.096096","RA_OF_ASC_NODE":"57.0880","CENTER_NAME":"EARTH","TIME_SYSTEM":"UTC","ELEMENT_SET_NO":"999","FILE":"3922365","ARG_OF_PERICENTER":"89.3293","PERIOD":"95.591","MEAN_MOTION_DDOT":"0.0000000000000","OBJECT_NAME":"STARLINK-2755","COUNTRY_CODE":"US","CLASSIFICATION_TYPE":"U","LAUNCH_DATE":"2021-05-09","INCLINATION":"53.0555","APOAPSIS":"547.991","SITE":"AFETR","REF_FRAME":"TEME","OBJECT_TYPE":"PAYLOAD","MEAN_ELEMENT_THEORY":"SGP4","TLE_LINE1":"1 48479U 21040BD  23152.14934139  .00015221  00000-0  10381-2 0  9992","EPHEMERIS_TYPE":"0"},{"MEAN_MOTION_DDOT":"0.0000000000000","TIME_SYSTEM":"UTC","ELEMENT_SET_NO":"999","FILE":"3922365","ARG_OF_PERICENTER":"154.3499","PERIOD":"95.593","OBJECT_NAME":"STARLINK-2690","COUNTRY_CODE":"US","CLASSIFICATION_TYPE":"U","APOAPSIS":"549.131","SITE":"AFETR","LAUNCH_DATE":"2021-05-09","INCLINATION":"53.0543","REF_FRAME":"TEME","MEAN_ELEMENT_THEORY":"SGP4","OBJECT_TYPE":"PAYLOAD","TLE_LINE1":"1 48480U 21040BE  23152.02951665  .00005633  00000-0  39683-3 0  9997","EPHEMERIS_TYPE":"0","BSTAR":"0.00039683000000","PERIAPSIS":"545.344","MEAN_ANOMALY":"205.7626","TLE_LINE2":"2 48480  53.0543  67.6052 0002734 154.3499 205.7626 15.06392125113718","ECCENTRICITY":"0.00027340","NORAD_CAT_ID":"48480","RCS_SIZE":"LARGE","DECAY_DATE":null,"MEAN_MOTION_DOT":"0.00005633","REV_AT_EPOCH":"11371","SEMIMAJOR_AXIS":"6925.373","GP_ID":"232960430","EPOCH":"2023-06-01T00:42:30.238560","MEAN_MOTION":"15.06392125","RA_OF_ASC_NODE":"67.6052","CENTER_NAME":"EARTH","OBJECT_ID":"2021-040BE"},{"EPHEMERIS_TYPE":"0","TLE_LINE1":"1 48481U 21040BF  23152.07104955  .00003493  00000-0  25328-3 0  9998","MEAN_ELEMENT_THEORY":"SGP4","OBJECT_TYPE":"PAYLOAD","REF_FRAME":"TEME","INCLINATION":"53.0545","LAUNCH_DATE":"2021-05-09","SITE":"AFETR","APOAPSIS":"548.119","CLASSIFICATION_TYPE":"U","COUNTRY_CODE":"US","OBJECT_NAME":"STARLINK-2706","PERIOD":"95.592","ARG_OF_PERICENTER":"81.9958","FILE":"3922365","ELEMENT_SET_NO":"999","TIME_SYSTEM":"UTC","MEAN_MOTION_DDOT":"0.0000000000000","OBJECT_ID":"2021-040BF","CENTER_NAME":"EARTH","RA_OF_ASC_NODE":"67.7178","MEAN_MOTION":"15.06402959","EPOCH":"2023-06-01T01:42:18.681120","GP_ID":"232961181","SEMIMAJOR_AXIS":"6925.339","REV_AT_EPOCH":"11371","MEAN_MOTION_DOT":"0.00003493","RCS_SIZE":"LARGE","DECAY_DATE":null,"NORAD_CAT_ID":"48481","ECCENTRICITY":"0.00013200","TLE_LINE2":"2 48481  53.0545  67.7178 0001320  81.9958 278.1180 15.06402959113712","MEAN_ANOMALY":"278.1180","PERIAPSIS":"546.290","BSTAR":"0.00025328000000"},{"MEAN_MOTION_DDOT":"0.0000000000000","ARG_OF_PERICENTER":"80.1526","PERIOD":"95.590","TIME_SYSTEM":"UTC","ELEMENT_SET_NO":"999","FILE":"3922718","CLASSIFICATION_TYPE":"U","COUNTRY_CODE":"US","OBJECT_NAME":"STARLINK-2525","SITE":"AFETR","APOAPSIS":"547.870","LAUNCH_DATE":"2021-05-09","INCLINATION":"53.0555","OBJECT_TYPE":"PAYLOAD","MEAN_ELEMENT_THEORY":"SGP4","EPHEMERIS_TYPE":"0","TLE_LINE1":"1 48482U 21040BG  23152.90033426  .00021243  00000-0  14392-2 0  9996","REF_FRAME":"TEME","BSTAR":"0.00143920000000","MEAN_ANOMALY":"279.9590","PERIAPSIS":"546.316","ECCENTRICITY":"0.00011220","NORAD_CAT_ID":"48482","TLE_LINE2":"2 48482  53.0555  63.7165 0001122  80.1526 279.9590 15.06439461113844","RCS_SIZE":"LARGE","DECAY_DATE":null,"REV_AT_EPOCH":"11384","SEMIMAJOR_AXIS":"6925.228","MEAN_MOTION_DOT":"0.00021243","GP_ID":"232996201","CENTER_NAME":"EARTH","EPOCH":"2023-06-01T21:36:28.880064","MEAN_MOTION":"15.06439461","RA_OF_ASC_NODE":"63.7165","OBJECT_ID":"2021-040BG"},{"BSTAR":"0.00146410000000","MEAN_ANOMALY":"273.7299","PERIAPSIS":"546.282","NORAD_CAT_ID":"48483","ECCENTRICITY":"0.00011710","TLE_LINE2":"2 48483  53.0550  63.7343 0001171  86.3823 273.7299 15.06439485113844","RCS_SIZE":"LARGE","DECAY_DATE":null,"SEMIMAJOR_AXIS":"6925.228","REV_AT_EPOCH":"11384","MEAN_MOTION_DOT":"0.00021617","GP_ID":"232996451","CENTER_NAME":"EARTH","RA_OF_ASC_NODE":"63.7343","MEAN_MOTION":"15.06439485","EPOCH":"2023-06-01T21:31:10.463232","OBJECT_ID":"2021-040BH","MEAN_MOTION_DDOT":"0.0000000000000","PERIOD":"95.590","ARG_OF_PERICENTER":"86.3823","ELEMENT_SET_NO":"999","FILE":"3922718","TIME_SYSTEM":"UTC","COUNTRY_CODE":"US","CLASSIFICATION_TYPE":"U","OBJECT_NAME":"STARLINK-2531","SITE":"AFETR","APOAPSIS":"547.903","INCLINATION":"53.0550","LAUNCH_DATE":"2021-05-09","TLE_LINE1":"1 48483U 21040BH  23152.89664888  .00021617  00000-0  14641-2 0  9999","EPHEMERIS_TYPE":"0","MEAN_ELEMENT_THEORY":"SGP4","OBJECT_TYPE":"PAYLOAD","REF_FRAME":"TEME"},{"MEAN_MOTION_DDOT":"0.0000000000000","ELEMENT_SET_NO":"999","FILE":"3922365","TIME_SYSTEM":"UTC","PERIOD":"95.592","ARG_OF_PERICENTER":"95.3137","OBJECT_NAME":"STARLINK-2696","COUNTRY_CODE":"US","CLASSIFICATION_TYPE":"U","APOAPSIS":"548.096","SITE":"AFETR","INCLINATION":"53.0552","LAUNCH_DATE":"2021-05-09","REF_FRAME":"TEME","EPHEMERIS_TYPE":"0","TLE_LINE1":"1 48484U 21040BJ  23152.17793059 -.00000304  00000-0 -14973-5 0  9997","OBJECT_TYPE":"PAYLOAD","MEAN_ELEMENT_THEORY":"SGP4","BSTAR":"-0.00000149730000","PERIAPSIS":"546.325","MEAN_ANOMALY":"264.7998","TLE_LINE2":"2 48484  53.0552  67.3152 0001278  95.3137 264.7998 15.06401012113730","NORAD_CAT_ID":"48484","ECCENTRICITY":"0.00012780","DECAY_DATE":null,"RCS_SIZE":"LARGE","MEAN_MOTION_DOT":"-0.00000304","SEMIMAJOR_AXIS":"6925.345","REV_AT_EPOCH":"11373","GP_ID":"232960931","RA_OF_ASC_NODE":"67.3152","MEAN_MOTION":"15.06401012","EPOCH":"2023-06-01T04:16:13.202976","CENTER_NAME":"EARTH","OBJECT_ID":"2021-040BJ"},{"RCS_SIZE":"LARGE","DECAY_DATE":null,"TLE_LINE2":"2 48485  53.0551  63.6963 0001295  84.0169 276.0968 15.06427402113844","ECCENTRICITY":"0.00012950","NORAD_CAT_ID":"48485","PERIAPSIS":"546.233","MEAN_ANOMALY":"276.0968","BSTAR":"0.00132780000000","OBJECT_ID":"2021-040BK","EPOCH":"2023-06-01T21:41:47.468832","MEAN_MOTION":"15.06427402","RA_OF_ASC_NODE":"63.6963","CENTER_NAME":"EARTH","GP_ID":"232996954","MEAN_MOTION_DOT":"0.00019566","REV_AT_EPOCH":"11384","SEMIMAJOR_AXIS":"6925.265","CLASSIFICATION_TYPE":"U","COUNTRY_CODE":"US","OBJECT_NAME":"STARLINK-2500","TIME_SYSTEM":"UTC","ELEMENT_SET_NO":"999","FILE":"3922718","ARG_OF_PERICENTER":"84.0169","PERIOD":"95.590","MEAN_MOTION_DDOT":"0.0000000000000","REF_FRAME":"TEME","OBJECT_TYPE":"PAYLOAD","MEAN_ELEMENT_THEORY":"SGP4","EPHEMERIS_TYPE":"0","TLE_LINE1":"1 48485U 21040BK  23152.90402163  .00019566  00000-0  13278-2 0  9994","LAUNCH_DATE":"2021-05-09","INCLINATION":"53.0551","APOAPSIS":"548.026","SITE":"AFETR"}];
